

*******************************************************************************
Ephemeris / MAIL_REQUEST Sun Jul  5 11:33:34 2015 Pasadena, USA  / Horizons
*******************************************************************************
Target body name: Moon (301)                      {source: DE-0431LE-0431}
Center body name: Solar System Barycenter (0)     {source: DE-0431LE-0431}
Center-site name: BODY CENTER
*******************************************************************************
Start time      : A.D. 2015-Jan-01 00:00:00.0000 CT
Stop  time      : A.D. 2016-Jan-02 00:00:00.0000 CT
Step-size       : 720 minutes
*******************************************************************************
Center geodetic : 0.00000000,0.00000000,0.0000000 {E-lon(deg),Lat(deg),Alt(km)}
Center cylindric: 0.00000000,0.00000000,0.0000000 {E-lon(deg),Dxy(km),Dz(km)}
Center radii    : (undefined)
Output units    : KM-S
Output format   : 02
Reference frame : ICRF/J2000.0
Output type     : GEOMETRIC cartesian states
Coordinate systm: Ecliptic and Mean Equinox of Reference Epoch
*******************************************************************************
JDCT
   X     Y     Z
   VX    VY    VZ
*******************************************************************************
$$SOE
2457045.000000000 = A.D. 2015-Jan-22 12:00:00.0000 (CT)
  -7.711424008308636E+07  1.246683305059748E+08 -3.302754226244986E+03
  -2.519589223750098E+01 -1.493864703813069E+01 -6.799632845830050E-02
2457045.500000000 = A.D. 2015-Jan-23 00:00:00.0000 (CT)
  -7.820218053514071E+07  1.240194699669365E+08 -6.405243662744761E+03
  -2.517264002530965E+01 -1.510358175924225E+01 -7.543479409422371E-02
2457046.000000000 = A.D. 2015-Jan-23 12:00:00.0000 (CT)
  -7.928921830957469E+07  1.233631689817989E+08 -9.801956932485104E+03
  -2.515369991095921E+01 -1.528322816786673E+01 -8.159925694446457E-02
2457046.500000000 = A.D. 2015-Jan-24 00:00:00.0000 (CT)
  -8.037548733165981E+07  1.226987801232617E+08 -1.343572391812503E+04
  -2.513664427803596E+01 -1.547806386787292E+01 -8.639723238013008E-02
2457047.000000000 = A.D. 2015-Jan-24 12:00:00.0000 (CT)
  -8.146101684730197E+07  1.220256445611888E+08 -1.724619121383131E+04
  -2.511906948240532E+01 -1.568814378787170E+01 -8.977372959071328E-02
2457047.500000000 = A.D. 2015-Jan-25 00:00:00.0000 (CT)
  -8.254573429006560E+07  1.213431095760143E+08 -2.117141369096190E+04
  -2.509867785844829E+01 -1.591313788514321E+01 -9.170961645811015E-02
2457048.000000000 = A.D. 2015-Jan-25 12:00:00.0000 (CT)
  -8.362947130356558E+07  1.206505440876716E+08 -2.514933666472137E+04
  -2.507334128182550E+01 -1.615238406081163E+01 -9.221828892730066E-02
2457048.500000000 = A.D. 2015-Jan-26 00:00:00.0000 (CT)
  -8.471197207819550E+07  1.199473517049076E+08 -2.911910863512009E+04
  -2.504114473480886E+01 -1.640494884193782E+01 -9.134126194967163E-02
2457049.000000000 = A.D. 2015-Jan-26 12:00:00.0000 (CT)
  -8.579290315352266E+07  1.192329811066360E+08 -3.302219112938643E+04
  -2.500041095323292E+01 -1.666968923240688E+01 -8.914327782756626E-02
2457049.500000000 = A.D. 2015-Jan-27 00:00:00.0000 (CT)
  -8.687186392632407E+07  1.185069338199315E+08 -3.680325595577061E+04
  -2.494970902792370E+01 -1.694531069875932E+01 -8.570742734761083E-02
2457050.000000000 = A.D. 2015-Jan-27 12:00:00.0000 (CT)
  -8.794839725079298E+07  1.177687696378031E+08 -4.041087863900512E+04
  -2.488785072997773E+01 -1.723041806432758E+01 -8.113063965716982E-02
2457050.500000000 = A.D. 2015-Jan-28 00:00:00.0000 (CT)
  -8.902199968558434E+07  1.170181100219840E+08 -4.379804904502630E+04
  -2.481387846618933E+01 -1.752355776862191E+01 -7.551975305759218E-02
2457051.000000000 = A.D. 2015-Jan-28 12:00:00.0000 (CT)
  -9.009213110411109E+07  1.162546398721399E+08 -4.692252657537907E+04
  -2.472704837881004E+01 -1.782325129399936E+01 -6.898825404686448E-02
2457051.500000000 = A.D. 2015-Jan-29 00:00:00.0000 (CT)
  -9.115822352221873E+07  1.154781080298593E+08 -4.974706892595440E+04
  -2.462681142069601E+01 -1.812802049177505E+01 -6.165367743570460E-02
2457052.000000000 = A.D. 2015-Jan-29 12:00:00.0000 (CT)
  -9.221968910289572E+07  1.146883268412724E+08 -5.223956164011359E+04
  -2.451279445739713E+01 -1.843640607575476E+01 -5.363559826199005E-02
2457052.500000000 = A.D. 2015-Jan-30 00:00:00.0000 (CT)
  -9.327592736995663E+07  1.138851710417444E+08 -5.437307187980413E+04
  -2.438478270482161E+01 -1.874698076538070E+01 -4.505411286030903E-02
2457053.000000000 = A.D. 2015-Jan-30 12:00:00.0000 (CT)
  -9.432633170504925E+07  1.130685761617778E+08 -5.612584510069340E+04
  -2.424270417969920E+01 -1.905835854230117E+01 -3.602869555095811E-02
2457053.500000000 = A.D. 2015-Jan-31 00:00:00.0000 (CT)
  -9.537029522049467E+07  1.122385365932332E+08 -5.748125847256929E+04
  -2.408661635084390E+01 -1.936920131666896E+01 -2.667732234040354E-02
2457054.000000000 = A.D. 2015-Jan-31 12:00:00.0000 (CT)
  -9.640721610064176E+07  1.113951034041650E+08 -5.842774049005657E+04
  -2.391669483438972E+01 -1.967822405068188E+01 -1.711576790682301E-02
2457054.500000000 = A.D. 2015-Feb-01 00:00:00.0000 (CT)
  -9.743650249258587E+07  1.105383819513154E+08 -5.895866259267181E+04
  -2.373322376239773E+01 -1.998419910712973E+01 -7.457002324181339E-03
2457055.000000000 = A.D. 2015-Feb-01 12:00:00.0000 (CT)
  -9.845757700851148E+07  1.096685293121631E+08 -5.907220591079444E+04
  -2.353658735146483E+01 -2.028596031504247E+01  2.189364004428818E-03
2457055.500000000 = A.D. 2015-Feb-02 00:00:00.0000 (CT)
  -9.946988088089454E+07  1.087857515426541E+08 -5.877120449490100E+04
  -2.332726218440429E+01 -2.058240699631203E+01  1.171761736110444E-02
2457056.000000000 = A.D. 2015-Feb-02 12:00:00.0000 (CT)
  -1.004728777917295E+08  1.078903007608265E+08 -5.806296550436318E+04
  -2.310580977236326E+01 -2.087250799139170E+01  2.102647084843667E-02
2457056.500000000 = A.D. 2015-Feb-03 00:00:00.0000 (CT)
  -1.014660573803220E+08  1.069824720584218E+08 -5.695906669601053E+04
  -2.287286906662715E+01 -2.115530556783859E+01  3.001958341916477E-02
2457057.000000000 = A.D. 2015-Feb-03 12:00:00.0000 (CT)
  -1.024489384226469E+08  1.060626002499352E+08 -5.547513199084997E+04
  -2.262914871979148E+01 -2.142991899663867E+01  3.860605252222626E-02
2457057.500000000 = A.D. 2015-Feb-04 00:00:00.0000 (CT)
  -1.034210716696496E+08  1.051310564789675E+08 -5.363058671277016E+04
  -2.237541903669969E+01 -2.169554753865933E+01  4.670085868303619E-02
2457058.000000000 = A.D. 2015-Feb-04 12:00:00.0000 (CT)
  -1.043820423322715E+08  1.041882447128604E+08 -5.144839508148283E+04
  -2.211250369121993E+01 -2.195147259183222E+01  5.422523867696238E-02
2457058.500000000 = A.D. 2015-Feb-05 00:00:00.0000 (CT)
  -1.053314722068553E+08  1.032345981663644E+08 -4.895478351042420E+04
  -2.184127140058879E+01 -2.219705880331162E+01  6.110696649174763E-02
2457059.000000000 = A.D. 2015-Feb-05 12:00:00.0000 (CT)
  -1.062690214448550E+08  1.022705757017641E+08 -4.617895403683931E+04
  -2.156262783534180E+01 -2.243175403770777E+01  6.728052742539425E-02
2457059.500000000 = A.D. 2015-Feb-06 00:00:00.0000 (CT)
  -1.071943899839952E+08  1.012966582552904E+08 -4.315279266336560E+04
  -2.127750809238097E+01 -2.265508820169875E+01  7.268717941546754E-02
2457060.000000000 = A.D. 2015-Feb-06 12:00:00.0000 (CT)
  -1.081073186725444E+08  1.003133453370882E+08 -3.991057742598653E+04
  -2.098687006953821E+01 -2.286667104377789E+01  7.727490601166132E-02
2457060.500000000 = A.D. 2015-Feb-07 00:00:00.0000 (CT)
  -1.090075901325406E+08  9.932115164433733E+07 -3.648869057899714E+04
  -2.069168905330198E+01 -2.306618916437446E+01  8.099827623850331E-02
2457061.000000000 = A.D. 2015-Feb-07 12:00:00.0000 (CT)
  -1.098950294200836E+08  9.832060381463446E+07 -3.292533840030432E+04
  -2.039295377149507E+01 -2.325340257680803E+01  8.381823704710634E-02
2457061.500000000 = A.D. 2015-Feb-08 00:00:00.0000 (CT)
  -1.107695045498910E+08  9.731223733007386E+07 -2.926028080254048E+04
  -2.009166407547916E+01 -2.342814124710185E+01  8.570187344192348E-02
2457062.000000000 = A.D. 2015-Feb-08 12:00:00.0000 (CT)
  -1.116309269561479E+08  9.629659356245929E+07 -2.553457124371827E+04
  -1.978883030788593E+01 -2.359030210706095E+01  8.662217925810012E-02
2457062.500000000 = A.D. 2015-Feb-09 00:00:00.0000 (CT)
  -1.124792519614455E+08  9.527421692769194E+07 -2.179030543453991E+04
  -1.948547428669759E+01 -2.373984707892025E+01  8.655788774296447E-02
2457063.000000000 = A.D. 2015-Feb-09 12:00:00.0000 (CT)
  -1.133144793196611E+08  9.424565209358539E+07 -1.807037511499226E+04
  -1.918263169733679E+01 -2.387680267103194E+01  8.549341547727707E-02
2457063.500000000 = A.D. 2015-Feb-10 00:00:00.0000 (CT)
  -1.141366538863776E+08  9.321144116115184E+07 -1.441822079902887E+04
  -1.888135553140209E+01 -2.400126170166806E+01  8.341897566757339E-02
2457064.000000000 = A.D. 2015-Feb-10 12:00:00.0000 (CT)
  -1.149458664512442E+08  9.217212071586202E+07 -1.087757494949549E+04
  -1.858272004183380E+01 -2.411338767886920E+01  8.033091718650631E-02
2457064.500000000 = A.D. 2015-Feb-11 00:00:00.0000 (CT)
  -1.157422547397971E+08  9.112821862379915E+07 -7.492184651061893E+03
  -1.828782449682361E+01 -2.421342230099857E+01  7.623234331346929E-02
2457065.000000000 = A.D. 2015-Feb-11 12:00:00.0000 (CT)
  -1.165260045568455E+08  9.008025042973903E+07 -4.305500637691468E+03
  -1.799779580738431E+01 -2.430169643220015E+01  7.113405778273219E-02
2457065.500000000 = A.D. 2015-Feb-12 00:00:00.0000 (CT)
  -1.172973509987736E+08  8.902871520243143E+07 -1.360317711371928E+03
  -1.771378887979284E+01 -2.437864472975765E+01  6.505587366937249E-02
2457066.000000000 = A.D. 2015-Feb-12 12:00:00.0000 (CT)
  -1.180565796075597E+08  8.797409067014909E+07  1.301649542629719E+03
  -1.743698331737973E+01 -2.444482383093915E+01  5.802830033319495E-02
